OBJECT_NAME,OBJECT_ID,EPOCH,MEAN_MOTION,ECCENTRICITY,INCLINATION,RA_OF_ASC_NODE,ARG_OF_PERICENTER,MEAN_ANOMALY,EPHEMERIS_TYPE,CLASSIFICATION_TYPE,NORAD_CAT_ID,ELEMENT_SET_NO,REV_AT_EPOCH,BSTAR,MEAN_MOTION_DOT,MEAN_MOTION_DDOT
FENGYUN 3D,2017-072A,2026-06-13T06:30:35.593056,14.19740003,.00026096,99.0117,138.6225,67.7819,292.3633,0,U,43010,999,44443,.25873184E-3,.501E-5,0
NOAA 20 (JPSS-1),2017-073A,2026-06-13T06:22:23.971008,14.19511041,.00003026,98.7773,103.7630,66.0717,294.0491,0,U,43013,999,44391,.31806299E-4,.23E-6,0
GOES 17,2018-022A,2026-06-13T05:53:00.724992,1.00270379,.00004279,0.9269,85.7804,30.2263,144.3165,0,U,43226,999,3038,0,-.17E-5,0
SENTINEL-3B,2018-039A,2026-06-13T04:36:54.538560,14.26733805,.00007698,98.6249,231.7817,82.8273,277.2995,0,U,43437,999,42355,.60105319E-4,.102E-5,0
FENGYUN 2H,2018-050A,2026-06-13T01:33:15.878304,1.00270096,.00018994,3.0192,79.1271,133.1484,151.8574,0,U,43491,999,2939,0,-.119E-5,0
METOP-C,2018-087A,2026-06-13T06:24:39.701088,14.21511104,.00016254,98.6645,223.9423,133.9025,226.2287,0,U,43689,999,39427,.63057063E-4,.95E-6,0
GEO-KOMPSAT-2A,2018-100A,2026-06-13T06:55:07.661568,1.00272471,.000181,0.0496,138.5411,306.7741,48.3368,0,U,43823,999,2759,0,-.331E-5,0
METEOR-M2 2,2019-038A,2026-06-13T05:46:31.327104,14.24365487,.00021991,98.9139,151.4675,53.7865,306.3516,0,U,44387,999,36073,.13735524E-3,.272E-5,0
ARKTIKA-M 1,2021-016A,2026-06-09T12:22:37.726752,2.00625436,.7285674,63.2417,58.7595,269.8905,14.6803,0,U,47719,999,3863,0,-.149E-5,0
FENGYUN 3E,2021-062A,2026-06-13T07:49:27.632064,14.19904969,.0002813,98.7492,167.7769,91.2436,268.9063,0,U,49008,999,25603,.12739647E-3,.227E-5,0
GOES 18,2022-021A,2026-06-13T00:31:28.360128,1.00271996,.00004497,0.0390,159.0555,4.1908,328.9636,0,U,51850,999,655,0,.11E-5,0
NOAA 21 (JPSS-2),2022-150A,2026-06-13T07:09:59.025312,14.19564804,.00014278,98.7061,103.1531,162.7125,197.4100,0,U,54234,999,18599,.3706407E-4,.35E-6,0
METEOSAT-12 (MTG-I1),2022-170C,2026-06-13T06:18:28.087776,1.00271868,.00031669,0.7338,22.2696,72.2391,261.2665,0,U,54743,999,1293,0,.4E-7,0
TIANMU-1 03,2023-039A,2026-06-13T07:10:42.538944,15.47179870,.00042902,97.5223,338.1169,108.8967,251.2748,0,U,55973,999,18023,.29313336E-3,.14809E-3,0
TIANMU-1 04,2023-039B,2026-06-13T06:57:42.706368,15.47775393,.00048403,97.5161,337.2608,106.0035,254.1749,0,U,55974,999,18024,.30066406E-3,.15511E-3,0
TIANMU-1 05,2023-039C,2026-06-13T06:42:44.633664,15.47106919,.0003859,97.5205,337.7130,123.6764,236.4854,0,U,55975,999,18021,.30493378E-3,.1537E-3,0
TIANMU-1 06,2023-039D,2026-06-13T07:02:13.876224,15.47680753,.00042655,97.5214,338.3588,120.3998,239.7674,0,U,55976,999,18024,.29806662E-3,.15324E-3,0
FENGYUN 3G,2023-055A,2026-06-13T02:47:09.307680,15.52454242,.00068911,49.9936,6.9969,279.6481,80.3707,0,U,56232,999,17937,.40293865E-3,.24771E-3,0
METEOR-M2 3,2023-091A,2026-06-13T07:18:12.123072,14.24046451,.00041424,98.6090,219.3619,165.4436,194.6863,0,U,57166,999,15396,.20135863E-4,.3E-7,0
TIANMU-1 07,2023-101A,2026-06-13T07:21:04.662144,15.29764867,.00039079,97.2598,215.0636,129.5296,230.6291,0,U,57399,999,16105,.22046494E-3,.6283E-4,0
TIANMU-1 08,2023-101B,2026-06-13T06:33:03.477888,15.29769317,.00054358,97.2586,214.8021,124.3676,235.8080,0,U,57400,999,16104,.22334921E-3,.6368E-4,0
TIANMU-1 09,2023-101C,2026-06-13T06:09:17.159904,15.29799141,.00043183,97.2545,214.2038,135.6799,224.4788,0,U,57401,999,16104,.21879535E-3,.6242E-4,0
TIANMU-1 10,2023-101D,2026-06-13T06:56:46.546368,15.29770459,.00059387,97.2625,215.2825,136.3241,223.8470,0,U,57402,999,16104,.23452718E-3,.6692E-4,0
FENGYUN 3F,2023-111A,2026-06-13T07:26:25.963872,14.19938473,.00015924,98.6836,234.3908,95.9295,264.2063,0,U,57490,999,14831,.4035868E-4,.42E-6,0
ARKTIKA-M 2,2023-198A,2026-06-09T18:48:45.592992,2.00606537,.69004015,63.2205,155.1874,267.4353,18.7899,0,U,58584,999,1817,0,.212E-5,0
TIANMU-1 11,2023-205A,2026-06-13T07:38:15.847008,15.26957887,.0009426,97.3445,185.9357,29.8890,330.2885,0,U,58645,999,13693,.21152665E-3,.5532E-4,0
TIANMU-1 12,2023-205B,2026-06-13T06:55:27.401376,15.26921005,.00072243,97.3434,185.6629,17.2994,342.8490,0,U,58646,999,13691,.22498574E-3,.5879E-4,0
TIANMU-1 13,2023-205C,2026-06-13T07:41:15.624672,15.26775408,.00063761,97.3462,185.9662,356.4927,3.6266,0,U,58647,999,13691,.22176406E-3,.5767E-4,0
TIANMU-1 14,2023-205D,2026-06-13T07:20:07.204416,15.26819827,.00073498,97.3398,185.1366,0.2110,359.9130,0,U,58648,999,13691,.21352256E-3,.5558E-4,0
TIANMU-1 19,2023-208A,2026-06-13T05:40:04.863360,15.31518671,.00041214,97.4500,280.5157,345.8246,14.2879,0,U,58660,999,13672,.28929627E-3,.873E-4,0
