FENGYUN 3D              
1 43010U 17072A   26164.27124529  .00000501  00000+0  25873-3 0  9999
2 43010  99.0117 138.6225 0002609  67.7819 292.3633 14.19740003444435
NOAA 20 (JPSS-1)        
1 43013U 17073A   26164.26555522  .00000023  00000+0  31806-4 0  9996
2 43013  98.7773 103.7630 0000302  66.0717 294.0491 14.19511041443913
GOES 17                 
1 43226U 18022A   26164.24514728 -.00000170  00000+0  00000+0 0  9999
2 43226   0.9269  85.7804 0000427  30.2263 144.3165  1.00270379 30383
SENTINEL-3B             
1 43437U 18039A   26164.19229790  .00000102  00000+0  60105-4 0  9998
2 43437  98.6249 231.7817 0000769  82.8273 277.2995 14.26733805423551
FENGYUN 2H              
1 43491U 18050A   26164.06476711 -.00000119  00000+0  00000+0 0  9996
2 43491   3.0192  79.1271 0001899 133.1484 151.8574  1.00270096 29395
METOP-C                 
1 43689U 18087A   26164.26712617  .00000095  00000+0  63057-4 0  9993
2 43689  98.6645 223.9423 0001625 133.9025 226.2287 14.21511104394276
GEO-KOMPSAT-2A          
1 43823U 18100A   26164.28828312 -.00000331  00000+0  00000+0 0  9999
2 43823   0.0496 138.5411 0001810 306.7741  48.3368  1.00272471 27591
METEOR-M2 2             
1 44387U 19038A   26164.24064036  .00000272  00000+0  13736-3 0  9994
2 44387  98.9139 151.4675 0002199  53.7865 306.3516 14.24365487360738
ARKTIKA-M 1             
1 47719U 21016A   26160.51571443 -.00000149  00000+0  00000+0 0  9996
2 47719  63.2417  58.7595 7285674 269.8905  14.6803  2.00625436 38630
FENGYUN 3E              
1 49008U 21062A   26164.32601426  .00000227  00000+0  12740-3 0  9992
2 49008  98.7492 167.7769 0002813  91.2436 268.9063 14.19904969256036
GOES 18                 
1 51850U 22021A   26164.02185602  .00000110  00000+0  00000+0 0  9999
2 51850   0.0390 159.0555 0000449   4.1908 328.9636  1.00271996  6550
NOAA 21 (JPSS-2)        
1 54234U 22150A   26164.29859983  .00000035  00000+0  37064-4 0  9991
2 54234  98.7061 103.1531 0001427 162.7125 197.4100 14.19564804185999
METEOSAT-12 (MTG-I1)    
1 54743U 22170C   26164.26282509  .00000004  00000+0  00000+0 0  9990
2 54743   0.7338  22.2696 0003166  72.2391 261.2665  1.00271868 12939
TIANMU-1 03             
1 55973U 23039A   26164.29910346  .00014809  00000+0  29313-3 0  9991
2 55973  97.5223 338.1169 0004290 108.8967 251.2748 15.47179870180236
TIANMU-1 04             
1 55974U 23039B   26164.29007762  .00015511  00000+0  30066-3 0  9999
2 55974  97.5161 337.2608 0004840 106.0035 254.1749 15.47775393180249
TIANMU-1 05             
1 55975U 23039C   26164.27968326  .00015370  00000+0  30493-3 0  9997
2 55975  97.5205 337.7130 0003859 123.6764 236.4854 15.47106919180216
TIANMU-1 06             
1 55976U 23039D   26164.29321616  .00015324  00000+0  29807-3 0  9991
2 55976  97.5214 338.3588 0004265 120.3998 239.7674 15.47680753180248
FENGYUN 3G              
1 56232U 23055A   26164.11607995  .00024771  00000+0  40294-3 0  9992
2 56232  49.9936   6.9969 0006891 279.6481  80.3707 15.52454242179376
METEOR-M2 3             
1 57166U 23091A   26164.30430698  .00000003  00000+0  20136-4 0  9990
2 57166  98.6090 219.3619 0004142 165.4436 194.6863 14.24046451153962
TIANMU-1 07             
1 57399U 23101A   26164.30630396  .00006283  00000+0  22046-3 0  9994
2 57399  97.2598 215.0636 0003907 129.5296 230.6291 15.29764867161052
TIANMU-1 08             
1 57400U 23101B   26164.27295692  .00006368  00000+0  22335-3 0  9994
2 57400  97.2586 214.8021 0005435 124.3676 235.8080 15.29769317161047
TIANMU-1 09             
1 57401U 23101C   26164.25644861  .00006242  00000+0  21880-3 0  9994
2 57401  97.2545 214.2038 0004318 135.6799 224.4788 15.29799141161042
TIANMU-1 10             
1 57402U 23101D   26164.28942762  .00006692  00000+0  23453-3 0  9996
2 57402  97.2625 215.2825 0005938 136.3241 223.8470 15.29770459161048
FENGYUN 3F              
1 57490U 23111A   26164.31002273  .00000042  00000+0  40359-4 0  9990
2 57490  98.6836 234.3908 0001592  95.9295 264.2063 14.19938473148311
ARKTIKA-M 2             
1 58584U 23198A   26160.78386103  .00000212  00000+0  00000+0 0  9997
2 58584  63.2205 155.1874 6900401 267.4353  18.7899  2.00606537 18179
TIANMU-1 11             
1 58645U 23205A   26164.31823897  .00005532  00000+0  21153-3 0  9999
2 58645  97.3445 185.9357 0009426  29.8890 330.2885 15.26957887136936
TIANMU-1 12             
1 58646U 23205B   26164.28851159  .00005879  00000+0  22499-3 0  9996
2 58646  97.3434 185.6629 0007224  17.2994 342.8490 15.26921005136916
TIANMU-1 13             
1 58647U 23205C   26164.32031973  .00005767  00000+0  22176-3 0  9994
2 58647  97.3462 185.9662 0006376 356.4927   3.6266 15.26775408136916
TIANMU-1 14             
1 58648U 23205D   26164.30563894  .00005558  00000+0  21352-3 0  9998
2 58648  97.3398 185.1366 0007349   0.2110 359.9130 15.26819827136918
TIANMU-1 19             
1 58660U 23208A   26164.23616740  .00008730  00000+0  28930-3 0  9990
2 58660  97.4500 280.5157 0004121 345.8246  14.2879 15.31518671136728
